[{"OBJECT_NAME":"FLOCK 4G-27","OBJECT_ID":"2025-009AJ","EPOCH":"2026-03-09T18:05:51.175392","MEAN_MOTION":15.27199247,"ECCENTRICITY":7.564e-5,"INCLINATION":97.3976,"RA_OF_ASC_NODE":150.8631,"ARG_OF_PERICENTER":322.4974,"MEAN_ANOMALY":37.6212,"EPHEMERIS_TYPE":0,"CLASSIFICATION_TYPE":"U","NORAD_CAT_ID":62641,"ELEMENT_SET_NO":999,"REV_AT_EPOCH":6371,"BSTAR":0.00047455305,"MEAN_MOTION_DOT":0.00012587,"MEAN_MOTION_DDOT":0},{"OBJECT_NAME":"STARLINK-34032","OBJECT_ID":"2025-093T","EPOCH":"2026-03-09T08:38:30.483456","MEAN_MOTION":15.27612498,"ECCENTRICITY":0.00016929,"INCLINATION":43.0041,"RA_OF_ASC_NODE":79.5819,"ARG_OF_PERICENTER":279.4228,"MEAN_ANOMALY":80.6433,"EPHEMERIS_TYPE":0,"CLASSIFICATION_TYPE":"U","NORAD_CAT_ID":63853,"ELEMENT_SET_NO":999,"REV_AT_EPOCH":4792,"BSTAR":0.0013634646,"MEAN_MOTION_DOT":0.00037486,"MEAN_MOTION_DDOT":0}]
