FLOCK 4G-27             
1 62641U 25009AJ  26068.75406453  .00012587  00000+0  47455-3 0  9991
2 62641  97.3976 150.8631 0000756 322.4974  37.6212 15.27199247 63710
STARLINK-34032          
1 63853U 25093T   26068.36007504  .00037486  00000+0  13635-2 0  9998
2 63853  43.0041  79.5819 0001692 279.4228  80.6433 15.27612498 47921
